ONEWEB-0412             
1 50489U 21132W   23313.14397973  .00000049  00000+0  92789-4 0  9991
2 50489  87.9237 164.6397 0001971  66.5969 293.5371 13.18688931 97597
ONEWEB-0413             
1 50490U 21132X   23313.14818035  .00001373  00000+0  34487-2 0  9990
2 50490  87.9237 164.6529 0002037  70.4646 289.6705 13.18681847 97547
ONEWEB-0414             
1 50491U 21132Y   23313.13449300 -.00000072  00000+0 -21464-3 0  9994
2 50491  87.9234 164.6429 0001995  76.9154 283.2201 13.18687245 97573
ONEWEB-0417             
1 50492U 21132Z   23313.14187132  .00000238  00000+0  57132-3 0  9991
2 50492  87.9170 164.6506 0001740  88.8481 271.2850 13.18687404 97554
ONEWEB-0418             
1 50493U 21132AA  23313.15555782  .00000146  00000+0  33834-3 0  9994
2 50493  87.9234 164.6393 0001976  94.5921 265.5437 13.18688535 97603
ONEWEB-0419             
1 50494U 21132AB  23313.09339296  .00000170  00000+0  39853-3 0  9992
2 50494  87.9231 164.6753 0001541  96.2701 263.8606 13.18689053 97520
ONEWEB-0420             
1 50495U 21132AC  23312.83203737  .00000392  00000+0  96177-3 0  9992
2 50495  87.9228 164.7374 0001362  56.8590 303.2672 13.18687652 96193
ONEWEB-0421             
1 50496U 21132AD  23313.12922527  .00000487  00000+0  12017-2 0  9996
2 50496  87.9163 164.6441 0002224  73.2954 286.8422 13.18683865 97575
